{"type": "FeatureCollection", "features": [{"type": "Feature", "properties": {"norad_id": 25590, "name": "COSMOS 2361", "group": "musson", "lat": -18.443954389354474, "lon": -26.851579638511975, "alt_km": 1000.354733349116, "timestamp": "2025-12-24T07:45:06.469405+00:00", "meta": {"OBJECT_NAME": "COSMOS 2361", "OBJECT_ID": "1998-076A", "EPOCH": "2025-12-23T23:21:41.251968", "MEAN_MOTION": 13.73218682, "ECCENTRICITY": 0.00302733, "INCLINATION": 82.9345, "RA_OF_ASC_NODE": 335.7774, "ARG_OF_PERICENTER": 233.0859, "MEAN_ANOMALY": 180.816, "EPHEMERIS_TYPE": 0, "CLASSIFICATION_TYPE": "U", "NORAD_CAT_ID": 25590, "ELEMENT_SET_NO": 999, "REV_AT_EPOCH": 35265, "BSTAR": 4.0134867e-05, "MEAN_MOTION_DOT": 5.2e-07, "MEAN_MOTION_DDOT": 0}, "tle": {"line1": "1 25590U 98076A   25357.97339412  .00000052  00000+0  40135-4 0  9994", "line2": "2 25590  82.9345 335.7774 0030273 233.0859 180.8160 13.73218682352651"}}, "geometry": {"type": "Point", "coordinates": [-26.851579638511975, -18.443954389354474]}}, {"type": "Feature", "properties": {"norad_id": 26818, "name": "COSMOS 2378", "group": "musson", "lat": 82.65997860891878, "lon": 96.59579701189622, "alt_km": 973.1567635368565, "timestamp": "2025-12-24T07:45:06.469426+00:00", "meta": {"OBJECT_NAME": "COSMOS 2378", "OBJECT_ID": "2001-023A", "EPOCH": "2025-12-23T22:51:27.097344", "MEAN_MOTION": 13.74142895, "ECCENTRICITY": 0.00331023, "INCLINATION": 82.9271, "RA_OF_ASC_NODE": 351.4102, "ARG_OF_PERICENTER": 173.4398, "MEAN_ANOMALY": 246.6146, "EPHEMERIS_TYPE": 0, "CLASSIFICATION_TYPE": "U", "NORAD_CAT_ID": 26818, "ELEMENT_SET_NO": 999, "REV_AT_EPOCH": 23077, "BSTAR": 3.3822799e-05, "MEAN_MOTION_DOT": 4.7e-07, "MEAN_MOTION_DDOT": 0}, "tle": {"line1": "1 26818U 01023A   25357.95239696  .00000047  00000+0  33823-4 0  9995", "line2": "2 26818  82.9271 351.4102 0033102 173.4398 246.6146 13.74142895230778"}}, "geometry": {"type": "Point", "coordinates": [96.59579701189622, 82.65997860891878]}}, {"type": "Feature", "properties": {"norad_id": 27436, "name": "COSMOS 2389", "group": "musson", "lat": -18.963872260080482, "lon": -64.02639333502117, "alt_km": 962.8796893497984, "timestamp": "2025-12-24T07:45:06.469440+00:00", "meta": {"OBJECT_NAME": "COSMOS 2389", "OBJECT_ID": "2002-026A", "EPOCH": "2025-12-23T21:39:00.536256", "MEAN_MOTION": 13.75155797, "ECCENTRICITY": 0.00471439, "INCLINATION": 82.9512, "RA_OF_ASC_NODE": 298.7217, "ARG_OF_PERICENTER": 30.294, "MEAN_ANOMALY": 28.58, "EPHEMERIS_TYPE": 0, "CLASSIFICATION_TYPE": "U", "NORAD_CAT_ID": 27436, "ELEMENT_SET_NO": 999, "REV_AT_EPOCH": 18302, "BSTAR": 5.8300956e-05, "MEAN_MOTION_DOT": 7.2e-07, "MEAN_MOTION_DDOT": 0}, "tle": {"line1": "1 27436U 02026A   25357.90208954  .00000072  00000+0  58301-4 0  9990", "line2": "2 27436  82.9512 298.7217 0047143  30.2940  28.5800 13.75155797183021"}}, "geometry": {"type": "Point", "coordinates": [-64.02639333502117, -18.963872260080482]}}, {"type": "Feature", "properties": {"norad_id": 27818, "name": "COSMOS 2398", "group": "musson", "lat": 0.7475357776941286, "lon": 84.07039715417022, "alt_km": 997.2198824340903, "timestamp": "2025-12-24T07:45:06.469451+00:00", "meta": {"OBJECT_NAME": "COSMOS 2398", "OBJECT_ID": "2003-023A", "EPOCH": "2025-12-23T06:57:36.807840", "MEAN_MOTION": 13.72386879, "ECCENTRICITY": 0.00327075, "INCLINATION": 82.9484, "RA_OF_ASC_NODE": 264.924, "ARG_OF_PERICENTER": 83.6863, "MEAN_ANOMALY": 34.3991, "EPHEMERIS_TYPE": 0, "CLASSIFICATION_TYPE": "U", "NORAD_CAT_ID": 27818, "ELEMENT_SET_NO": 999, "REV_AT_EPOCH": 12961, "BSTAR": 7.7783029e-05, "MEAN_MOTION_DOT": 8.7e-07, "MEAN_MOTION_DDOT": 0}, "tle": {"line1": "1 27818U 03023A   25357.29000935  .00000087  00000+0  77783-4 0  9994", "line2": "2 27818  82.9484 264.9240 0032707  83.6863  34.3991 13.72386879129615"}}, "geometry": {"type": "Point", "coordinates": [84.07039715417022, 0.7475357776941286]}}, {"type": "Feature", "properties": {"norad_id": 28380, "name": "COSMOS 2407", "group": "musson", "lat": 1.6176900770436309, "lon": 24.11630775588262, "alt_km": 1006.2118466358788, "timestamp": "2025-12-24T07:45:06.469462+00:00", "meta": {"OBJECT_NAME": "COSMOS 2407", "OBJECT_ID": "2004-028A", "EPOCH": "2025-12-23T20:28:21.589824", "MEAN_MOTION": 13.76314876, "ECCENTRICITY": 0.00398074, "INCLINATION": 82.9595, "RA_OF_ASC_NODE": 204.6643, "ARG_OF_PERICENTER": 24.4884, "MEAN_ANOMALY": 346.3425, "EPHEMERIS_TYPE": 0, "CLASSIFICATION_TYPE": "U", "NORAD_CAT_ID": 28380, "ELEMENT_SET_NO": 999, "REV_AT_EPOCH": 7576, "BSTAR": 3.8252415e-05, "MEAN_MOTION_DOT": 5.3e-07, "MEAN_MOTION_DDOT": 0}, "tle": {"line1": "1 28380U 04028A   25357.85302766  .00000053  00000+0  38252-4 0  9995", "line2": "2 28380  82.9595 204.6643 0039807  24.4884 346.3425 13.76314876 75761"}}, "geometry": {"type": "Point", "coordinates": [24.11630775588262, 1.6176900770436309]}}, {"type": "Feature", "properties": {"norad_id": 28521, "name": "COSMOS 2414", "group": "musson", "lat": -24.535391816312114, "lon": -0.8606467938711538, "alt_km": 945.1325999677174, "timestamp": "2025-12-24T07:45:06.469481+00:00", "meta": {"OBJECT_NAME": "COSMOS 2414", "OBJECT_ID": "2005-002A", "EPOCH": "2025-12-23T11:44:27.459744", "MEAN_MOTION": 13.87904329, "ECCENTRICITY": 0.00413832, "INCLINATION": 82.9488, "RA_OF_ASC_NODE": 176.5312, "ARG_OF_PERICENTER": 109.8571, "MEAN_ANOMALY": 250.706, "EPHEMERIS_TYPE": 0, "CLASSIFICATION_TYPE": "U", "NORAD_CAT_ID": 28521, "ELEMENT_SET_NO": 999, "REV_AT_EPOCH": 5944, "BSTAR": 3.8343846e-05, "MEAN_MOTION_DOT": 6.2e-07, "MEAN_MOTION_DDOT": 0}, "tle": {"line1": "1 28521U 05002A   25357.48920671  .00000062  00000+0  38344-4 0  9997", "line2": "2 28521  82.9488 176.5312 0041383 109.8571 250.7060 13.87904329 59442"}}, "geometry": {"type": "Point", "coordinates": [-0.8606467938711538, -24.535391816312114]}}, {"type": "Feature", "properties": {"norad_id": 32052, "name": "COSMOS 2429", "group": "musson", "lat": 12.636503671063227, "lon": 153.1866957923882, "alt_km": 1009.1272926299744, "timestamp": "2025-12-24T07:45:06.469502+00:00", "meta": {"OBJECT_NAME": "COSMOS 2429", "OBJECT_ID": "2007-038A", "EPOCH": "2025-12-23T22:12:40.481856", "MEAN_MOTION": 13.75150489, "ECCENTRICITY": 0.00385801, "INCLINATION": 82.9807, "RA_OF_ASC_NODE": 335.0624, "ARG_OF_PERICENTER": 7.0833, "MEAN_ANOMALY": 353.086, "EPHEMERIS_TYPE": 0, "CLASSIFICATION_TYPE": "U", "NORAD_CAT_ID": 32052, "ELEMENT_SET_NO": 999, "REV_AT_EPOCH": 91756, "BSTAR": 4.5922554e-05, "MEAN_MOTION_DOT": 5.9e-07, "MEAN_MOTION_DDOT": 0}, "tle": {"line1": "1 32052U 07038A   25357.92546854  .00000059  00000+0  45923-4 0  9995", "line2": "2 32052  82.9807 335.0624 0038580   7.0833 353.0860 13.75150489917562"}}, "geometry": {"type": "Point", "coordinates": [153.1866957923882, 12.636503671063227]}}, {"type": "Feature", "properties": {"norad_id": 35635, "name": "COSMOS 2454", "group": "musson", "lat": -21.43965565090125, "lon": 157.0809698863141, "alt_km": 927.671002356371, "timestamp": "2025-12-24T07:45:06.469514+00:00", "meta": {"OBJECT_NAME": "COSMOS 2454", "OBJECT_ID": "2009-039A", "EPOCH": "2025-12-23T22:00:46.624320", "MEAN_MOTION": 13.89929976, "ECCENTRICITY": 0.00200652, "INCLINATION": 82.9557, "RA_OF_ASC_NODE": 160.1717, "ARG_OF_PERICENTER": 43.6325, "MEAN_ANOMALY": 65.7894, "EPHEMERIS_TYPE": 0, "CLASSIFICATION_TYPE": "U", "NORAD_CAT_ID": 35635, "ELEMENT_SET_NO": 999, "REV_AT_EPOCH": 83305, "BSTAR": 4.5961718e-05, "MEAN_MOTION_DOT": 7.3e-07, "MEAN_MOTION_DDOT": 0}, "tle": {"line1": "1 35635U 09039A   25357.91720630  .00000073  00000+0  45962-4 0  9992", "line2": "2 35635  82.9557 160.1717 0020065  43.6325  65.7894 13.89929976833050"}}, "geometry": {"type": "Point", "coordinates": [157.0809698863141, -21.43965565090125]}}, {"type": "Feature", "properties": {"norad_id": 36519, "name": "COSMOS 2463", "group": "musson", "lat": -21.8482769426276, "lon": 15.360414774045223, "alt_km": 995.847304646004, "timestamp": "2025-12-24T07:45:06.469525+00:00", "meta": {"OBJECT_NAME": "COSMOS 2463", "OBJECT_ID": "2010-017A", "EPOCH": "2025-12-23T20:26:58.883424", "MEAN_MOTION": 13.71650073, "ECCENTRICITY": 0.00347861, "INCLINATION": 82.9603, "RA_OF_ASC_NODE": 18.5461, "ARG_OF_PERICENTER": 256.0762, "MEAN_ANOMALY": 277.5424, "EPHEMERIS_TYPE": 0, "CLASSIFICATION_TYPE": "U", "NORAD_CAT_ID": 36519, "ELEMENT_SET_NO": 999, "REV_AT_EPOCH": 78389, "BSTAR": 3.0004433e-05, "MEAN_MOTION_DOT": 4.2e-07, "MEAN_MOTION_DDOT": 0}, "tle": {"line1": "1 36519U 10017A   25357.85207041  .00000042  00000+0  30004-4 0  9998", "line2": "2 36519  82.9603  18.5461 0034786 256.0762 277.5424 13.71650073783894"}}, "geometry": {"type": "Point", "coordinates": [15.360414774045223, -21.8482769426276]}}]}